[{"OBJECT_NAME":"ORBCOMM FM19","OBJECT_ID":"1998-046C","EPOCH":"2026-03-09T00:07:17.563296","MEAN_MOTION":14.39270127,"ECCENTRICITY":0.00018158,"INCLINATION":44.9959,"RA_OF_ASC_NODE":359.683,"ARG_OF_PERICENTER":187.4459,"MEAN_ANOMALY":272.3467,"EPHEMERIS_TYPE":0,"CLASSIFICATION_TYPE":"U","NORAD_CAT_ID":25415,"ELEMENT_SET_NO":999,"REV_AT_EPOCH":44234,"BSTAR":0.00058926699,"MEAN_MOTION_DOT":1.703e-5,"MEAN_MOTION_DDOT":0},{"OBJECT_NAME":"DMSP 5D-2 F13 DEB","OBJECT_ID":"1995-015FH","EPOCH":"2026-03-09T13:21:46.151424","MEAN_MOTION":14.40750203,"ECCENTRICITY":0.0022409,"INCLINATION":98.6937,"RA_OF_ASC_NODE":107.7149,"ARG_OF_PERICENTER":338.799,"MEAN_ANOMALY":21.2267,"EPHEMERIS_TYPE":0,"CLASSIFICATION_TYPE":"U","NORAD_CAT_ID":40610,"ELEMENT_SET_NO":999,"REV_AT_EPOCH":56516,"BSTAR":0.0018979,"MEAN_MOTION_DOT":6.046e-5,"MEAN_MOTION_DDOT":0}]
